03468   11.5   0.15 K118R  88.94205  303.30070   81.11039   10.98825  0.0830845  0.18794321   3.0184567  0 MPO169565   547  15 1975-2009 0.59 M-v 38h MPCADO     0000   (3468) Urgenta            20091119
03469   11.0   0.15 K118R 303.44175   64.18257  219.55799    9.22839  0.0810148  0.18774903   3.0205376  0 MPO186490   972  22 1940-2010 0.54 M-v 38h MPCLINUX   0000   (3469) Bulgakov           20100405
03470   13.1   0.15 K118R  24.47784  312.77676  237.20364    2.55813  0.1458409  0.27431116   2.3458869  0 MPO104057   646  18 1954-2006 0.62 M-v 38h MPCW       0000   (3470) Yaronika           20060824
03471   11.3   0.15 K118R 203.22423  161.97546  335.12961   15.38254  0.0558297  0.17308073   3.1888707  0 MPO176628   692  18 1958-2010 0.50 M-v 38h MPCALB     0000   (3471) Amelin             20100326
03472   13.6   0.15 K118R  61.30331  140.47094  243.11762    4.48638  0.1770284  0.21923296   2.7239480  0 MPO158360   528  18 1974-2009 0.59 M-v 38h MPCALB     0000   (3472) Upgren             20090528
03473   13.6   0.15 K118R  15.65435   57.93097  129.72169    0.96447  0.1583972  0.27141451   2.3625482  0 MPO 77284   503  15 1924-2005 0.60 M-v 38h MPCW       0000   (3473) Sapporo            20050601
03474   13.0   0.15 K118R 339.32159  107.29004  169.36950    5.97749  0.2084802  0.24120830   2.5558845  0 MPO140638   637  18 1962-2008 0.56 M-v 38h MPCW       0000   (3474) Linsley            20080701
03475   11.3   0.15 K118R 219.59139  232.40262  242.03762   15.01658  0.1290096  0.17462690   3.1700196  0 MPO177903   678  18 1961-2010 0.54 M-v 38h MPCADO     0000   (3475) Fichte             20100514
03476   11.6   0.15 K118R 276.39972   26.43112   43.87727   21.62457  0.1958160  0.17562759   3.1579668  0 MPO198779   587  17 1976-2010 0.52 M-v 38h MPCALB     0000   (3476) Dongguan           20100318
03477   13.2   0.15 K118R 335.62489   96.65681  186.94647    6.71256  0.1119513  0.27434980   2.3456666  0 MPO135426   710  16 1969-2007 0.58 M-v 38h MPCW       0000   (3477) Kazbegi            20070608
03478   12.5   0.15 K118R 228.06202  270.03273  126.49141    3.83931  0.1626517  0.29470105   2.2363937  0 MPO192291   915  21 1925-2011 0.52 M-v 38h MPCLINUX   0000   (3478) Fanale             20110210
03479   11.3   0.15 K118R  16.05221   90.93501  196.75186   12.51031  0.0991379  0.18531951   3.0468796  0 MPO148743   747  19 1953-2008 0.55 M-v 38h MPCALB     0000   (3479) Malaparte          20081106
03480   13.2   0.15 K118R 244.16235   25.56157  187.43862    3.76012  0.2815915  0.18557962   3.0440319  0 MPO169565   647  17 1977-2009 0.60 M-v 38h MPCADO     0000   (3480) Abante             20091024
03481   13.2   0.15 K118R 350.73941  241.86733  187.14028    5.48182  0.1436804  0.29385491   2.2406847  1 MPO 47595   282  16 1967-2003 0.75 M-v 38h MPCW       0000   (3481) Xianglupeak        20030606
03482   12.2   0.15 K118R 284.17183  248.22090  128.81390    4.69381  0.1702850  0.21251114   2.7810892  0 MPO169565   876  18 1942-2010 0.53 M-v 38h MPCALB     0000   (3482) Lesnaya            20100117
03483   13.5   0.15 K118R  36.93771  277.43984   85.98461   23.61106  0.1249201  0.36675037   1.9329576  0 MPO169565   540  15 1976-2010 0.51 M-v 38h MPCMEL     0006   (3483) Svetlov            20100116
03484   12.8   0.15 K118R 345.82379  175.38183  116.18979   15.34806  0.1843742  0.23653515   2.5894385  0 MPO200107   724  16 1978-2011 0.53 M-v 38h MPCLINUX   0000   (3484) Neugebauer         20110611
03485   12.6   0.15 K118R 146.58430  339.26380  315.42898    1.80462  0.1671852  0.25888968   2.4381451  0 MPO135426   797  19 1952-2008 0.54 M-v 38h MPCW       0000   (3485) Barucci            20080305
03486   13.5   0.15 K118R 157.86166   19.07345   47.04757    3.20340  0.1797073  0.25980535   2.4324130  0 MPO 47595   359  15 1952-2003 0.69 M-v 38h MPCW       0000   (3486) Fulchignoni        20030520
03487   12.5   0.15 K118R 349.33347  115.14903  194.85164   12.44143  0.1713550  0.23415697   2.6069417  0 MPO200969   781  19 1957-2011 0.57 M-v 38h MPCLINUX   0000   (3487) Edgeworth          20110703
03488   12.8   0.15 K118R  97.63093  242.67627  142.16989   14.14029  0.1834065  0.23424699   2.6062738  0 MPO169565   631  15 1980-2009 0.56 M-v 38h MPCALB     0000   (3488) Brahic             20090723
03489   13.2   0.15 K118R 281.17689   46.86275   18.19413    6.31885  0.0974823  0.26386607   2.4073931  0 MPO117859   562  13 1974-2007 0.59 M-v 38h MPCW       0000   (3489) Lottie             20070327
03490   13.4   0.15 K118R  18.74486   99.13911  343.99862    5.87697  0.1166048  0.26501619   2.4004230  0 MPO169566   666  17 1951-2008 0.52 M-v 38h MPCW       0000   (3490) Solc               20080529
03491   12.4   0.15 K118R 234.84646  248.76661  161.47134    4.00669  0.0957494  0.21119315   2.7926478  0 MPO 97224   544  13 1974-2006 0.57 M-v 38h MPCW       0000   (3491) Fridolin           20060131
03492   11.8   0.15 K118R  33.61809   96.65507  138.92391   13.60616  0.1456806  0.23305189   2.6151762  0 MPO121260   658  15 1951-2007 0.56 M-v 38h MPCW       0000   (3492) Petra-Pepi         20070613
03493   12.9   0.15 K118R 303.95877   77.02632  122.16391    5.97477  0.0880131  0.30144458   2.2029149  0 MPO169566   790  15 1976-2009 0.53 M-v 38h MPCAPO     0000   (3493) Stepanov           20090421
03494   12.7   0.15 K118R 301.11124   72.09791  234.50580    5.83585  0.1296264  0.27356801   2.3501334  1 MPO 47595   366  15 1951-2003 0.65 M-v 38h MPCW       0000   (3494) Purple Mountain    20030425
03495   11.4   0.15 K118R 145.63330  101.23037  123.03386    2.47025  0.1199043  0.17001775   3.2270563  0 MPO 87239   598  21 1935-2005 0.68 M-v 38h MPCW       0000   (3495) Colchagua          20051007
03496   15.1   0.15 K118R 189.09295  283.80774  129.45018   29.69908  0.4579348  0.22024575   2.7155910  1 MPO198779    91   9 1977-2010 0.65 M-v 38h MPCAPO     0005   (3496) Arieso             20100602
03497   12.0   0.15 K118R 339.88279   62.59902  161.98806   11.31641  0.1519425  0.22358387   2.6884940  0 MPO 47595   308  14 1941-2003 0.73 M-v 38h MPCW       0000   (3497) Innanen            20030604
03498   13.5   0.15 K118R 269.34925  191.25734  223.58285    6.23530  0.1019193  0.27282788   2.3543817  0 MPO121260   501  16 1979-2007 0.59 M-v 38h MPCW       0000   (3498) Belton             20070620
03499   12.4   0.15 K118R 202.68115  189.49793  148.53572    2.22873  0.1731268  0.17990905   3.1076639  0 MPO169566   774  18 1979-2010 0.56 M-v 38h MPCALI     0000   (3499) Hoppe              20100118
03500   12.5   0.15 K118R 175.94642   10.20268  314.78154    4.25627  0.1965672  0.29416108   2.2391297  0 MPO155864   808  15 1919-2009 0.55 M-v 38h MPCMEL     0000   (3500) Kobayashi          20090319
03501   11.6   0.15 K118R  10.13394   69.60291  246.27304    4.99438  0.0844035  0.19727785   2.9224730  0 MPO 47595   390  18 1955-2003 0.67 M-v 38h MPCW       0000   (3501) Olegiya            20030414
03502   11.6   0.15 K118R 208.99292  211.23288  105.03286    2.81898  0.1771837  0.17795568   3.1303638  0 MPO186490   888  25 1957-2010 0.55 M-v 38h MPCLINUX   0000   (3502) Huangpu            20101116
03503   13.7   0.15 K118R 323.72222  112.42968  187.21221   11.90535  0.1840433  0.23287903   2.6164702  0 MPO141718   444  16 1974-2008 0.58 M-v 38h MPCW       0000   (3503) Brandt             20080728
03504   11.7   0.15 K118R 237.26649  165.44060  118.86015    2.04705  0.1799263  0.18045499   3.1013929  0 MPO139102   726  18 1954-2008 0.58 M-v 38h MPCW       0000   (3504) Kholshevnikov      20080506
03505   11.7   0.15 K118R 238.95935   90.86902  302.27687    9.10582  0.1124394  0.18864236   3.0109941  0 MPO198779   734  17 1978-2010 0.54 M-v 38h MPCAPO     0000   (3505) Byrd               20100611
03506   11.5   0.15 K118R 233.01725   52.20842  342.90730    9.06401  0.0946989  0.18972537   2.9995247  0 MPO200107   692  19 1956-2011 0.57 M-v 38h MPCLINUX   0000   (3506) French             20110602
03507   11.3   0.15 K118R 169.71993  184.02939   88.26715    3.24722  0.1561295  0.17776831   3.1325631  0 MPO110569   692  18 1965-2006 0.56 M-v 38h MPCW       0000   (3507) Vilas              20061122
03508   12.4   0.15 K118R 194.92453  298.73069    4.78510    6.64603  0.1132504  0.21525643   2.7573928  0 MPO186490   907  21 1966-2010 0.56 M-v 38h MPCLINUX   0000   (3508) Pasternak          20101116
03509   12.0   0.15 K118R 337.72496  139.81536  219.87400   12.81590  0.1524132  0.23536072   2.5980454  0 MPO169566   817  18 1957-2010 0.52 M-v 38h MPCMEL     0000   (3509) Sanshui            20100114
03510   12.3   0.15 K118R 120.07981   16.06231  279.82592    5.68834  0.1295914  0.24267452   2.5455791  0 MPO177903   785  18 1953-2010 0.58 M-v 38h MPCALB     0000   (3510) Veeder             20100526
03511   12.3   0.15 K118R  71.84506  238.23899  229.64116    8.66655  0.1997356  0.21652676   2.7465974  0 MPO 47595   267  12 1955-2003 0.61 M-v 38h MPCW       0000   (3511) Tsvetaeva          20030606
03512   13.6   0.15 K118R 111.99897  300.63940  112.87416    7.48852  0.2477758  0.29217396   2.2492706  0 MPO169566   608  15 1979-2008 0.57 M-v 38h MPCMEL     0000   (3512) Eriepa             20080608
03513   12.8   0.15 K118R 333.82344  353.24607  323.68931    2.64402  0.0102539  0.23123853   2.6288305  0 MPO 50330   384  14 1965-2003 0.62 M-v 38h MPCW       0000   (3513) Quqinyue           20030901
03514   11.6   0.15 K118R  56.76697  342.27521   24.32290    3.50760  0.1926365  0.12546349   3.9517653  0 MPO169566   696  18 1971-2009 0.58 M-v 38h MPCAPO     0008   (3514) Hooke              20091118
03515   12.4   0.15 K118R 178.03351  247.16143  341.80727    1.39235  0.0089475  0.20513131   2.8473974  0 MPO186490  1139  20 1954-2010 0.50 M-v 38h MPCLINUX   0000   (3515) Jindra             20101108
03516   12.2   0.15 K118R 356.71619  209.74591  161.87187    2.31961  0.0833367  0.20131106   2.8833075  0 MPO104057   599  17 1962-2006 0.66 M-v 38h MPCW       0000   (3516) Rusheva            20060825
